{
"type": "FeatureCollection",
"name": "provinces_v0",
"crs": { "type": "name", "properties": { "name": "urn:ogc:def:crs:OGC:1.3:CRS84" } },
"features": [
{"type":"Feature","properties":{"admin_unit_id":"admin.han140.sili","display_name":"司隶校尉部","geometry_status":"synthetic_proxy","historical_claim":false,"confidence":"technical_only"},"geometry":{"type":"Polygon","coordinates":[[[110.281927780127944,32.547285523566956],[110.200930912691902,32.551487420886637],[110.120684266488581,32.561479664967464],[110.041796433030569,32.577186285008175],[109.145880268435334,32.786090192823856],[109.063605564250409,32.808343086947794],[108.984195156126418,32.836758589460842],[108.908335781142,32.871091499141606],[108.836685923937068,32.91104525716127],[108.769870398888088,32.95627434430304],[108.708475112676069,33.006387086786553],[108.653042043307565,33.060948853774853],[108.604064473758186,33.119485626809784],[108.561982520452659,33.181487918519188],[108.099359539206617,33.93683589334308],[108.064519536847996,34.000191930964974],[108.037012792347639,34.065845662360999],[108.017088334434064,34.133246183702752],[108.004933076879212,34.20182664329672],[108.000669632536159,34.271008912345692],[108.004354617779569,34.340208393282929],[108.015977483183676,34.408838928485281],[108.427144447948294,36.166809824705169],[108.44948647646666,36.239726454071153],[108.481065756572065,36.310534520624287],[108.521590255579682,36.378523784128042],[108.570675234283755,36.443010466362978],[108.627846321326302,36.503344360634344],[108.692543657283466,36.558915661670589],[108.764127093124458,36.609161433477311],[108.841882408979146,36.653571634298878],[108.92502849978419,36.691694620920856],[109.01272545495577,36.723142059181676],[109.832196610157794,36.975510226974663],[109.931371353001154,37.000925866020609],[110.033550826456633,37.01788967064855],[110.137523460762594,37.026200261252527],[110.242054582776689,37.025758931675391],[113.818548759602621,36.81014078544883],[113.918835960081481,36.798510334549256],[114.016963690762964,36.778755438039745],[114.111831727794126,36.751097946417794],[114.202379438732422,36.715848165167763],[114.287598451626963,36.673401089394311],[114.366544518668206,36.624231634673905],[114.438348407113949,36.568888938111968],[114.642268089556893,36.393614059656997],[114.716994543869262,36.320414537755894],[114.902581295130588,36.112425984264299],[114.949902678952441,36.053528731687436],[114.989999755132729,35.991447015247267],[115.022542598052084,35.926718709607449],[115.047268927118282,35.859903274926062],[115.063985777201339,35.791576782899398],[115.072570496662323,35.72232684574076],[115.072971088068201,35.652747495739838],[114.962759000882585,33.517889903697743],[114.954170725366708,33.441862567307624],[114.936160673926594,33.366921217222853],[114.908938653535571,33.293831257862067],[114.765087964633736,32.966381829242081],[114.730387928360216,32.897819899478819],[114.687668570187995,32.832353692686503],[114.637356814386905,32.770609369259262],[114.5799488529629,32.713176278599015],[114.516005014285852,32.660601571201916],[114.446144183584039,32.613385233879711],[114.371037833249076,32.57197558393181],[114.291403718293054,32.536765253790556],[114.207999289387629,32.508087693461796],[114.121614872910627,32.486214213983267],[114.033066664524242,32.471351591120261],[113.943189580184651,32.463640244606999],[113.852830006275838,32.463153004405335],[111.502328432757281,32.521756819442921],[111.490217784545052,32.522005822986799],[110.281927780127944,32.547285523566956]]]}},
{"type":"Feature","properties":{"admin_unit_id":"admin.han140.yuzhou","display_name":"豫州","geometry_status":"synthetic_proxy","historical_claim":false,"confidence":"technical_only"},"geometry":{"type":"Polygon","coordinates":[[[113.057027259968024,30.534719089164952],[112.970044114062844,30.535537900784835],[112.88355105996493,30.543393208237095],[112.798339529561815,30.55821284619164],[112.715190183596832,30.579860624740327],[112.634866311428695,30.608137499801444],[112.558107323425205,30.642783287118423],[112.485622373433173,30.683478908924592],[112.418084150602454,30.729849158781569],[112.35612288201726,30.781465966483768],[112.300320589986129,30.83785214125561],[112.25120565031726,30.898485567743641],[112.209247700300324,30.962803825523416],[112.174852947247373,31.030209199011516],[111.912917788396172,31.615937260931698],[111.887161114064256,31.682157375195054],[111.868817141887533,31.750054831158483],[111.858059111000969,31.81905647598111],[111.53851561055113,34.894165669996262],[111.535147252036083,34.970254582513512],[111.541480369656284,35.046220392828914],[111.55747792777548,35.121284290550541],[111.583002760832812,35.194674610369937],[111.617817875032472,35.265634852723274],[111.661587857360246,35.33343163235309],[111.713881421333852,35.397362466131426],[111.774175102618116,35.456763309691333],[111.841858099359342,35.511015751888792],[111.916238232224003,35.559553777049942],[111.996548978191356,35.601870007492721],[112.081957510766074,35.637521343042273],[112.171573658138229,35.666133920229335],[112.264459670658312,35.687407321548676],[113.522920087906016,35.914550815010124],[113.637312295292773,35.928893567588887],[113.753093520364828,35.93221420752635],[115.103241326178789,35.899131433135999],[115.211920706949087,35.890962106203183],[115.31866921978137,35.873065017218764],[117.197413408029732,35.451989885201982],[117.287781545578085,35.426950695471795],[117.374442019301441,35.394821015632076],[117.456502419280923,35.355933231038797],[117.533121482580313,35.310689102464984],[117.603518106283019,35.259555321968534],[117.66697953177615,35.203058383235337],[117.72286860679975,35.141778836446512],[117.770630051303542,35.076345004167734],[117.809795673244068,35.007426239585705],[117.839988500451483,34.93572581163162],[117.860925813980899,34.86197350319987],[117.872421086408266,34.786918008901033],[117.874384844894706,34.71131921772669],[117.866824493198948,34.635940463818521],[117.430681522113062,31.877850196797763],[117.416018172286101,31.808101722171891],[117.393569014399404,31.739786651356038],[117.363549001373968,31.673501580170917],[117.326237333514499,31.609824160664903],[117.281974485445417,31.549308202067351],[117.231158795155963,31.492479011117521],[117.174242658162754,31.439829005300989],[117.111728369275909,31.391813629550999],[117.044163653366539,31.348847603999577],[117.020600215998115,31.33525236307166],[117.016471461354641,31.332883310549967],[116.049272424351386,30.773217235149225],[116.016337994941523,30.754769791703591],[115.921553738131578,30.704076939573838],[115.848956670877854,30.669042133477447],[115.772858815361275,30.639791652046537],[115.693906829446917,30.616573732123811],[115.612769642176758,30.59958526467868],[115.530133174392006,30.588970230274427],[115.446694975229818,30.584818557505766],[113.057027259968024,30.534719089164952]]]}},
{"type":"Feature","properties":{"admin_unit_id":"admin.han140.jizhou","display_name":"冀州","geometry_status":"synthetic_proxy","historical_claim":false,"confidence":"technical_only"},"geometry":{"type":"Polygon","coordinates":[[[114.39564331778017,35.507885841947953],[114.297951092397795,35.514568677766427],[114.169774230685775,35.52847959891151],[114.077956442735342,35.541996351998399],[113.988211330053772,35.562456443288461],[113.90137668769087,35.589669080209582],[113.818265442162044,35.623380288724277],[113.739658565062783,35.663275105191865],[113.666298159738574,35.708980306031123],[112.979015238310922,36.176770520248795],[112.914648935498917,36.22429975695448],[112.85606803483256,36.276219915723594],[112.803771029485034,36.332099712597106],[112.758207094453326,36.391474052864403],[112.719772086830517,36.453847704374503],[112.541822215358224,36.778522643056114],[112.508493418818389,36.84838913109671],[112.484199313823396,36.92046185415461],[112.469202245848763,36.994038818086977],[112.463675599514261,37.068401379214066],[112.467701086735303,37.142821150209272],[112.765791277246038,39.575340804736051],[112.780677201134296,39.651301854694161],[112.805887928491586,39.725734617976862],[112.841189761792037,39.79785845182473],[112.886240335808054,39.8669145345782],[112.94059110172924,39.932174091587825],[113.003691107076463,39.992946392581096],[113.074892073120253,40.048586420660975],[113.153454748553784,40.098502113096622],[113.23855649370401,40.142161075921678],[113.329300024327139,40.179096678227644],[113.424723218860294,40.208913438016353],[113.523809868790181,40.231291619559322],[114.639938316723843,40.432221485754532],[114.72918927156033,40.444763649059411],[114.819616409187631,40.451313027394541],[114.910478123613416,40.4518157666379],[117.868221734029717,40.336822361378125],[117.968762981086016,40.328019023451397],[118.067584934408032,40.311782584350276],[118.163680012315154,40.288279194661513],[118.256070875959949,40.257749153606518],[118.343821120586952,40.220504221645982],[118.426045383081757,40.176924150655999],[118.501918731890214,40.12745248280001],[118.570685222014617,40.072591678804166],[118.631665516524848,40.012897644401775],[118.684263496156134,39.948973730124813],[118.727971799373222,39.881464284329788],[118.762376256068009,39.811047842365411],[118.787159198166094,39.738430036193151],[118.802101649281894,39.664336308679168],[119.004459452337343,38.120115487292431],[119.0090740603179,38.038059051557241],[119.001928925343449,37.956109886837638],[118.983146934918636,37.875243495730935],[118.623446875101166,36.682953503150181],[118.598395806869647,36.613782234650635],[118.565012311752398,36.546775016528343],[118.289955536357624,36.06067917755221],[118.246327702563107,35.992553310626974],[118.19420273232015,35.928212836551246],[118.134127924416958,35.868308482699469],[118.066726739069196,35.813444746223112],[117.992692158871506,35.764174114020925],[117.912779563306728,35.720991822942153],[117.827799187991459,35.68433119733524],[117.738608235655789,35.654559595822754],[117.646102701544706,35.63197499416075],[117.551208971774372,35.616803226218785],[117.454875249429165,35.609195900474184],[115.061758320904374,35.492473132070842],[114.950965528044307,35.491047284350536],[114.39564331778017,35.507885841947953]]]}},
{"type":"Feature","properties":{"admin_unit_id":"admin.han140.yanzhou","display_name":"兖州","geometry_status":"synthetic_proxy","historical_claim":false,"confidence":"technical_only"},"geometry":{"type":"Polygon","coordinates":[[[114.671500524380789,33.462034207683352],[114.580658496224018,33.462800849627662],[114.490328544818638,33.470680457663654],[114.401349270851782,33.485599712335897],[114.314547794588577,33.507419739197083],[114.230732682012402,33.535937307376805],[114.150686968579052,33.570886587628713],[114.075161320407375,33.611941459179192],[114.004867374895639,33.658718351159393],[113.940471305327122,33.71077960077826],[113.882587656878016,33.767637306671254],[113.831773504395741,33.82875765202963],[113.788522985195868,33.893565668172009],[113.488501407209483,34.396918217890523],[113.449177876849063,34.472658643679843],[113.420326417936494,34.55135777434954],[113.402318285245784,34.632088756979741],[113.395399506196114,34.713898158088277],[113.36844165067383,36.34827532219861],[113.36844110024019,36.367998369245669],[113.379831463504445,37.040163186194228],[113.385619787874006,37.1126756268702],[113.400466867850781,37.184416664593115],[113.424258670057597,37.254713577330158],[113.456795734410051,37.322905345569694],[113.497794171014547,37.388348989953542],[113.546887543360199,37.45042580379878],[113.603629651047854,37.50854741441406],[113.667498212426409,37.562161606326853],[113.737899433430769,37.610757839721643],[113.81417343396808,37.653872398652858],[113.895600487770096,37.691093106017405],[114.413352856352518,37.900602069357163],[114.509392498455412,37.934223319809107],[114.609668243556399,37.959715050022709],[114.712996366412014,37.976775267128339],[114.818153948034123,37.985201685512685],[115.688465899242004,38.01578296149453],[115.705776849710091,38.016215799115969],[118.091915369563537,38.037833115615157],[118.191711968242416,38.033922661329434],[118.290451674921314,38.022253994719527],[118.387091189792031,38.002950563305532],[118.480611307123425,37.976216454361676],[118.570028504970082,37.942334046627124],[118.654406008851112,37.901660773538815],[118.732864174539117,37.85462504663284],[118.804590051468779,37.801721399383197],[118.868846007424608,37.743504921823209],[118.924977316342535,37.680585064638109],[119.192402150472702,37.343435594348726],[119.234615571353544,37.28401054840257],[119.269652119288821,37.22189169592864],[119.297241928240979,37.157588921821848],[119.322362820881168,37.088661500361759],[119.333471924058728,37.055206791985668],[119.42838620609173,36.737903533011234],[119.446451015504095,36.657523454503014],[119.453167357311784,36.576095532378886],[119.480870239905116,34.283922447282173],[119.47711158552498,34.20915789933332],[119.464137102822463,34.135055753541309],[119.442099827917502,34.062345014844034],[119.411240309398124,33.991739192550668],[119.371883350586486,33.923929443267923],[119.324434038602604,33.859577992972859],[119.269373127124254,33.799311892832691],[119.207251840079081,33.743717158528199],[119.138686162558756,33.693333337988847],[119.064350683284317,33.648648547651206],[118.984972050255308,33.61009501265211],[118.90132209804851,33.578045141785616],[118.814210701855444,33.552808163600936],[118.7244784099925,33.534627345697324],[118.632988903494407,33.523677815071501],[118.540621328685333,33.520064993279306],[114.671500524380789,33.462034207683352]]]}},
{"type":"Feature","properties":{"admin_unit_id":"admin.han140.xuzhou","display_name":"徐州","geometry_status":"synthetic_proxy","historical_claim":false,"confidence":"technical_only"},"geometry":{"type":"Polygon","coordinates":[[[117.419840530277369,30.932865435556746],[117.335220489918299,30.939980819914382],[117.251751789022507,30.953692653839287],[117.170158115857078,30.973881697473704],[117.091148219900802,31.000372296970522],[117.015410201908395,31.032933813847176],[116.943605909671831,31.071282506694605],[115.830489022092081,31.718255814113835],[115.759445039556553,31.763251328668776],[115.69398193380367,31.813768220354998],[115.634728876683866,31.869328097076284],[115.582259762973678,31.929403950432501],[115.537087593758841,31.993424915570422],[115.499659277598852,32.060781463247984],[115.470350907187651,32.130830985642646],[115.449463570708559,32.202903733125758],[115.437219757662874,32.276309054909042],[115.433760418404077,32.350341892205201],[115.442199064000988,32.996997368783681],[115.446887924981539,33.065138277409375],[115.504115084745877,33.520974617730168],[115.511345288276075,33.565206605113403],[115.725833363522682,34.617874895429345],[115.745765588826956,34.691242819353846],[115.774811623357138,34.76265284499793],[115.812704258440277,34.831388911697935],[115.859084807957032,34.896760027225852],[115.913505921481942,34.958107425175847],[115.975435445470481,35.014811455665154],[116.044261320461246,35.066298127491919],[116.955260761500398,35.673878379078566],[117.026558377325202,35.716455879887874],[117.102679337046823,35.753559256672943],[117.182946739006653,35.78485575412747],[117.266643682294841,35.81006432810576],[117.353020031138513,35.828958359270899],[117.441299588838447,35.841367850780209],[118.563907553202682,35.951367274477413],[118.63473218965224,35.955886665511514],[118.705791923591136,35.956246361197124],[119.567183439866824,35.932422088048341],[119.663154267772981,35.925606408966146],[119.757738315830196,35.911205435590617],[119.84995507807885,35.889368487855378],[119.938850629070032,35.860321829354838],[120.023508216539184,35.824366132787397],[120.103058322035267,35.781873125098059],[120.176688054142957,35.733281460538549],[121.12987035171507,35.026357610255339],[121.197563547785563,34.969800483461668],[121.2574215044894,34.907950983498012],[121.308808795190558,34.841484733690379],[121.351186871256104,34.771126088023607],[121.384119220656714,34.697639915825711],[121.407275207787464,34.621823013255209],[121.420432593545712,34.544495249190106],[121.42347875614972,34.466490552146453],[121.379751653336882,32.738001772965823],[121.379012536343041,32.719426683075042],[121.315731257985348,31.54823239254889],[121.307440786468106,31.474457244676429],[121.290533013223026,31.401702235182324],[121.265192131979703,31.330663848292271],[121.231681267936253,31.2620206253393],[121.190339222843562,31.196426825641879],[121.141576607429826,31.134506365724601],[121.085871419626287,31.076847085917642],[121.02376412701787,31.023995389148549],[120.955852310923362,30.976451292483592],[120.882784927729304,30.934663927731435],[120.805256240788793,30.899027523216493],[120.723999473564319,30.869877894683388],[120.639780231948919,30.847489469215137],[120.55338974102736,30.832072862036814],[120.465637939101228,30.823773022131736],[120.377346469735386,30.822667958706635],[118.975213494484208,30.854063037527041],[118.930912587624192,30.855700372982938],[117.419840530277369,30.932865435556746]]]}},
{"type":"Feature","properties":{"admin_unit_id":"admin.han140.qingzhou","display_name":"青州","geometry_status":"synthetic_proxy","historical_claim":false,"confidence":"technical_only"},"geometry":{"type":"Polygon","coordinates":[[[117.424390350363069,34.651521383997299],[117.332828506580185,34.659823850068456],[117.242687198611847,34.675140794179271],[117.154802947287706,34.69732999454299],[117.069993101338653,34.726185287169741],[116.989048801740921,34.761438338712566],[116.912728085466853,34.802760961736048],[116.841749170758661,34.849767958533192],[116.776783968734676,34.902020476093902],[116.718451869109998,34.959029851195844],[116.667313850896747,35.020261920825355],[116.623866971953078,35.085141769242668],[115.552355257800869,36.845626914152568],[115.515978456690718,36.911715804587999],[115.487860454720675,36.980183172516881],[115.468278039762566,37.050409602358883],[115.457432503549256,37.121758077282493],[115.455447000739809,37.19357963691661],[115.462364555213782,37.265219204137452],[115.478146762549088,37.336021532283212],[115.502673233221017,37.405337220788077],[115.535741815080414,37.472528744164876],[115.577069626094527,37.536976436626531],[115.626294919194109,37.598084372530217],[115.682979790462923,37.655286081388269],[116.582456412801363,38.465604387955757],[116.654638247843465,38.523172580995777],[116.734536074911588,38.574603365361483],[116.821253217455975,38.619309616926635],[116.913809700953365,38.656779942897359],[117.01115373892128,38.686584976470662],[117.112174333652561,38.708382698564826],[118.788219089085572,38.986196163262505],[118.872227993987551,38.996713029633867],[118.957135526672303,39.001745763945607],[119.042305690147728,39.001256614229476],[120.29857740460136,38.947215205309526],[120.406075171867116,38.937596210278301],[120.511512343040565,38.919172713873287],[120.613613831837171,38.892168124711645],[120.711148352288063,38.856909589326982],[121.473925334666177,38.537729550328095],[121.553022517494483,38.500426279478354],[121.627072330956295,38.457623389841636],[121.695415720537596,38.409707361719533],[121.757448525294805,38.357110021014279],[121.812626848924936,38.300304387966911],[121.860471730758348,38.239800167866761],[121.900573081736212,38.176138936034228],[121.932592862904499,38.109889071174138],[121.95626749601216,38.041640492085818],[121.97140950714504,37.971999252759424],[122.038895246507465,37.532538372428419],[122.045406741972101,37.432367846887168],[121.998997234833382,35.259510630113631],[121.993255110109828,35.188362358318621],[121.979051547087735,35.117959296085637],[121.956535951459969,35.048930743121602],[121.925930542280156,34.981892176900203],[121.887527655838539,34.917439888575338],[121.841686514520219,34.856145835772892],[121.788829509571585,34.798552750644582],[121.729438046784153,34.745169538205417],[121.664048003345982,34.696466996630079],[121.593244842682822,34.652873887886948],[121.517658432190231,34.614773383870187],[121.437957606517315,34.582499910063468],[121.368428683638498,34.55751724396989],[121.290695813144794,34.532776130515309],[121.210563004954395,34.513587034241596],[121.128646255690327,34.500097378370185],[121.045574089119967,34.492410742014414],[120.961983125062062,34.490586125213106],[120.187307067384879,34.498495576156301],[120.118910629083942,34.50094999381588],[118.054246262745039,34.617339955401334],[118.04378611035267,34.617888091159436],[117.424390350363069,34.651521383997299]]]}},
{"type":"Feature","properties":{"admin_unit_id":"admin.han140.jingzhou","display_name":"荆州","geometry_status":"synthetic_proxy","historical_claim":false,"confidence":"technical_only"},"geometry":{"type":"Polygon","coordinates":[[[110.042615092650394,24.033430679228125],[110.002228566480568,24.035734546561205],[108.408522356425053,24.150313347726222],[108.325711864060651,24.159467784619117],[108.244279875353058,24.176140032633771],[108.165021478895142,24.200166284149962],[108.088712122602843,24.231310373143263],[108.016100518719924,24.269265985248662],[107.94790171270995,24.313659530607779],[107.884790363930719,24.364053657451421],[107.827394288272473,24.419951379176698],[107.776288315390303,24.480800782523435],[107.731988515599056,24.546000279347329],[107.694946853721561,24.614904359444168],[107.665546328974756,24.686829796918538],[107.644096661111561,24.761062257743621],[107.630830583278239,24.836863251462148],[107.625900801172207,24.913477365482912],[107.556491089559685,31.598730807755402],[107.561079069309898,31.68192288627807],[107.576688154480991,31.764177874943062],[107.603160470050696,31.844492495621893],[107.640203202555028,31.921884589707812],[108.36177962555189,33.191574056439116],[108.405035817479032,33.257545008039656],[108.456194438650158,33.31968351547583],[108.514762052508686,33.377369751577781],[108.580167512829703,33.430027109668117],[108.651767359541239,33.477128241466794],[108.728852129560678,33.518200622075987],[108.810653523310563,33.552831571613986],[108.896352350399326,33.580672668333328],[108.98508716163137,33.601443494685327],[109.893841591798775,33.771053405928598],[110.000278143745277,33.785275193206779],[110.108055268744451,33.789399358151186],[112.562989282815892,33.743168261855843],[112.641028919961045,33.738241315783235],[112.718265259643431,33.728002212977721],[112.794140015795847,33.712524857572184],[114.083801102864854,33.393905203887016],[114.16986455640064,33.368215763659876],[114.252322714035301,33.335709478653392],[114.330356540151513,33.296710410718234],[114.403194355803251,33.251606864670912],[114.470119792461759,33.200847269800292],[114.530479016279102,33.144935451767942],[114.583687144087406,33.08442535601754],[114.629233788636284,33.019915289289905],[114.666687687299898,32.952041750001989],[115.727598992118303,30.671488467213617],[115.756819840395991,30.594388906646127],[115.776056888295543,30.515086225028003],[115.785117423596276,30.434491614465131],[115.783926890006455,30.353528868435433],[115.772528402094466,30.273123747094573],[114.692976643709542,24.647437355927035],[114.675321136035436,24.572242202661723],[114.649587651757301,24.499019179643572],[114.616051217748335,24.428498102284831],[114.575062235596675,24.361380704687043],[114.527042421184291,24.298333813655713],[114.47248016590467,24.239982901118236],[114.411925380431995,24.186906070121939],[114.34598388120915,24.139628524758638],[114.275311378301424,24.098617569393781],[114.200607121202211,24.064278177513195],[114.122607256800606,24.036949165356276],[114.042077951240373,24.016900000305235],[113.959808325006392,24.004328268753113],[113.876603248430868,23.999357822893895],[112.615473335128939,23.974599827342136],[112.607851396470082,23.974437401020285],[111.838967784957518,23.958525394651378],[111.770796633405368,23.959431615390653],[110.042615092650394,24.033430679228125]]]}},
{"type":"Feature","properties":{"admin_unit_id":"admin.han140.yangzhou","display_name":"扬州","geometry_status":"synthetic_proxy","historical_claim":false,"confidence":"technical_only"},"geometry":{"type":"Polygon","coordinates":[[[117.316862076226585,22.892510829272279],[117.229778038727218,22.880921923529161],[117.141883755126173,22.878055314506625],[117.054158800684263,22.883943215605644],[114.886772606681603,23.11550233157444],[114.80404681991898,23.127432528850147],[114.723007449775238,23.147083836493735],[114.644470218851922,23.174257202950589],[114.569227509326865,23.208677251719109],[114.498040858473246,23.249994945988657],[114.431633652145209,23.297790973911155],[114.370684069999641,23.351579827235827],[114.315818338791559,23.410814540113691],[114.267604352747824,23.474892049022671],[114.226545722575821,23.543159128994851],[114.193076316866566,23.614918855664126],[114.167555361249725,23.689437537125325],[114.150263161392289,23.765952054242117],[114.141397515539637,23.843677542910683],[113.683140159058027,30.930945529632115],[113.684773112821645,31.039499120258537],[113.831614331004658,32.46568795845657],[113.844422857870271,32.541942949189654],[113.86666572423195,32.616718658004132],[113.898135474397975,32.689232211866667],[113.938525639744682,32.758722565690775],[113.987433022109016,32.824458672910367],[114.044361140466492,32.885747409323407],[114.108724839323642,32.941941155103457],[114.179856037389243,32.992444940784686],[114.257010574029735,33.03672306554536],[114.575643575768794,33.199475423390759],[114.66164772174362,33.238152562343309],[114.752277632731207,33.26914289440478],[114.84649311608068,33.292089952007665],[114.943209425782072,33.306729537216853],[115.041310640852771,33.312892988313571],[116.78435933502098,33.33399671302999],[116.909992377363267,33.327629583387846],[120.993000437859394,32.820115567320805],[121.077321812035578,32.804756253371423],[121.159474759309006,32.782958375313001],[121.238721635997862,32.754917675399888],[121.314352950084597,32.720885740649223],[121.854494462019417,32.447676660565776],[121.929794618413339,32.404821560049385],[121.999441858174208,32.355968354388878],[122.062739084304326,32.301612369155002],[122.119057472062678,32.242303772954607],[122.167842657670064,32.178641728912837],[122.208619982535893,32.111268073938724],[122.240998754231228,32.040860603339112],[122.264675502939397,31.968126040708977],[122.279436228743592,31.893792774073901],[122.285157650439402,31.818603439091671],[122.361641898674151,26.614773367646066],[122.359356515004947,26.548894368684358],[122.350717207394567,26.483423950190904],[122.335802085776592,26.418848471398011],[122.31473518615816,26.355646856141245],[121.437379343487024,24.01322464705644],[121.40879034415839,23.945267159129937],[121.373424138071428,23.880090488381839],[121.331608482001059,23.818274741882426],[121.283726129822085,23.760369345750885],[121.230211143340355,23.706888299251847],[121.171544853171781,23.658305756928762],[121.108251509855137,23.615051971740034],[121.040893664279196,23.577509628947741],[120.970067315124979,23.546010597229103],[120.896396859494175,23.520833120152986],[120.820529881333172,23.502199467797585],[120.319887492893514,23.401074358082994],[120.277245349845103,23.393428121880653],[117.316862076226585,22.892510829272279]]]}},
{"type":"Feature","properties":{"admin_unit_id":"admin.han140.yizhou","display_name":"益州","geometry_status":"synthetic_proxy","historical_claim":false,"confidence":"technical_only"},"geometry":{"type":"Polygon","coordinates":[[[100.349485717324498,22.034417627046441],[100.294094476377907,22.032858557155333],[99.177159417089044,22.031247028307806],[99.095288427138243,22.034573434181031],[99.014166355558345,22.045631036071029],[98.934593150781851,22.064309904949631],[98.857354611141588,22.090424291466629],[98.783215152894584,22.123714391657398],[98.712910710587423,22.163848820490344],[98.647141817464885,22.210427773566479],[98.586566915623962,22.262986851627939],[98.531795947880553,22.321001516943927],[98.483384285686242,22.383892145134951],[98.441827049721738,22.451029630587286],[98.407553881795167,22.521741498319741],[98.380924228164034,22.595318470018551],[98.362223195147848,22.671021426988531],[98.351658037672124,22.74808870801921],[98.257990119870499,23.858158562081581],[98.256393517400184,23.881191322337258],[97.926133632695922,29.657032691735303],[97.927541709744972,29.755053930924305],[98.305478878870943,33.722880326321878],[98.317274829054242,33.795871015025533],[98.337873465200872,33.867576055618848],[98.367100210067662,33.937306920312949],[98.404695652616866,34.004392389381849],[98.45031725261282,34.068185159642667],[98.503541957951995,34.128068279139292],[98.563869737004978,34.183461337288541],[98.630728014097045,34.233826340026212],[98.703476981161785,34.27867320086515],[98.781415742959112,34.317564781326936],[98.863789237505642,34.350121417981697],[98.949795858007548,34.376024878335294],[99.038595688120722,34.395021694009152],[99.129319249291257,34.406925826985642],[99.221076647720224,34.411620633020434],[109.790712990332864,34.083106496853638],[109.883941645954195,34.072342767937677],[109.975317112691471,34.054043527018457],[110.063892453216653,34.028398358764676],[110.148752089721668,33.995672743597744],[110.229021906344968,33.956205104571957],[110.303878764964381,33.910403058769482],[110.372559309958731,33.858738925764598],[110.434367953588819,33.801744555006813],[110.48868395153562,33.740005541841391],[110.534967497203951,33.674154908227138],[110.572764782988287,33.604866328976527],[111.087267717071768,32.498661743773518],[111.11384549833592,32.431085783059558],[111.132536059210835,32.361746501856416],[111.14319305138639,32.291261364253387],[111.145742565243111,32.220256605455361],[111.140183051734923,32.149361629981584],[110.020952005623073,22.891556327160419],[110.008591965843635,22.814947931967389],[109.98815894612207,22.739864093595337],[109.95987623022269,22.667056400090932],[109.92404365076554,22.597252524372866],[109.881033971941392,22.531149083584154],[109.831288660156403,22.469404842235797],[109.775313102528756,22.412634319038055],[109.713671333148326,22.361401852600515],[109.646980326089476,22.316216176264106],[109.575903912566275,22.277525547248384],[109.501146377565149,22.245713470086287],[109.423445788995465,22.221095048997057],[109.343567110066047,22.203913998439148],[109.262295143399541,22.194340335601222],[109.180427353490401,22.192468773046016],[100.349485717324498,22.034417627046441]]]}},
{"type":"Feature","properties":{"admin_unit_id":"admin.han140.liangzhou","display_name":"凉州","geometry_status":"synthetic_proxy","historical_claim":false,"confidence":"technical_only"},"geometry":{"type":"Polygon","coordinates":[[[104.651237034952786,32.092454416725104],[104.582098918861988,32.091140218513161],[96.779607893845963,31.930863401758394],[96.687792830699749,31.929780117427967],[96.596300753772525,31.936267546494985],[96.506033080184267,31.950261559675145],[94.95073134447118,32.247231353469815],[94.861871041996835,32.267437780793166],[94.775871179179831,32.294834507315251],[94.69358345251193,32.32915042583366],[94.615825733513418,32.370045633935938],[94.543374397610592,32.417114585663498],[94.476956906060281,32.469889868888423],[94.41724469786557,32.527846582187514],[94.364846452178966,32.590407280101942],[94.320301785180334,32.656947450656986],[94.284075448579301,32.726801483889886],[94.256552099439105,32.79926908491737],[94.238031712651861,32.873622079797158],[94.228725707813325,32.949111557157437],[94.228753861157855,33.024975283353228],[94.689169185892212,39.796006417666106],[94.700414829269306,39.873789539964491],[94.722475034670751,39.950284704898486],[94.755143070165587,40.024659974689762],[94.798094086073192,40.096103812956258],[94.850887373078137,40.16383418183139],[94.912970069802483,40.22710742056141],[94.983682329829648,40.285226791986666],[95.291656755887118,40.512036730037892],[95.366089593564269,40.561440128990711],[95.446817929567203,40.605172439141384],[95.533055436081995,40.642801159370045],[95.623957268735737,40.673953463860045],[95.718628750430184,40.698320211658555],[95.816134735363406,40.715659292016639],[97.747609908383538,40.970515406942006],[97.863085210474068,40.979924456246145],[105.65422100880059,41.060021073152619],[105.660528308866645,41.059889847479347],[107.11701634397599,41.018406478062495],[107.219327988791008,41.011117616993914],[107.320097591753452,40.996276358695155],[107.418284886452014,40.974036517203359],[107.512878630563037,40.944628387678357],[107.602907832972321,40.908356130852923],[107.68745239718308,40.865594334792419],[107.765653036673868,40.816783805783615],[107.836720335100438,40.762426650590662],[107.899942843851548,40.70308072112514],[107.954694130717129,40.639353499628456],[108.000438715525121,40.57189550769283],[108.036736850785871,40.501393325850628],[108.063248126935292,40.428562312114465],[108.079733902058095,40.354139107880428],[108.086058574475189,40.278874018182087],[108.156227116346471,35.692139824401764],[108.150961248106768,35.604294913919865],[108.132736604844823,35.517528361389076],[107.644464493654795,33.775500153533038],[107.619050078357589,33.700976743240638],[107.584369561126536,33.628934160508734],[107.540808709697629,33.560123732304021],[107.488842430747283,33.495261387927002],[106.584862917735563,32.466660231180271],[106.527246134699737,32.406627953204293],[106.462618708000335,32.351658274997959],[106.391644998823125,32.302306044880005],[106.315049290062163,32.259068595217776],[106.233608548873818,32.222381008849617],[106.148144845782284,32.192612001125973],[106.059517491322381,32.170060446812784],[105.968614947559161,32.154952575996077],[105.876346568519182,32.147439858132998],[104.651237034952786,32.092454416725104]]]}},
{"type":"Feature","properties":{"admin_unit_id":"admin.han140.bingzhou","display_name":"并州","geometry_status":"synthetic_proxy","historical_claim":false,"confidence":"technical_only"},"geometry":{"type":"Polygon","coordinates":[[[110.636248705629754,34.635830449770921],[110.546791650129464,34.638794975458737],[110.458071502331109,34.648444980133355],[110.37086498049274,34.664695867192101],[110.285936684755754,34.687405110811397],[110.204032928210054,34.716373411109068],[110.12587565799285,34.751346313616899],[110.052156499320787,34.792016284021663],[109.983530957224403,34.838025226398329],[109.920612812933427,34.888967430346362],[109.863968754242919,34.944392929539724],[109.814113281644993,35.003811251199529],[109.771503934394516,35.066695532895785],[109.736536882828645,35.132486979882273],[109.709542935008329,35.20059963287666],[109.690784006917625,35.270425412836225],[109.434550351155181,36.48978587159138],[109.422618946853007,36.576303121486973],[109.323456437210893,38.115925821518083],[109.322377758484009,38.166924153271147],[109.341631930805278,38.98121525075365],[109.343283575537626,39.012980813017016],[109.467513722597857,40.532245213751231],[109.478329703360401,40.604594627066405],[109.498589494259576,40.675838517567946],[109.528129912281329,40.745307056084798],[109.566698500702586,40.812345053730787],[109.613954984893368,40.876318307489278],[109.669473673205232,40.936619817980777],[109.732746812294593,40.992675810968962],[109.803188891734194,41.043951493432466],[109.880141877082167,41.089956475399021],[109.96288133409918,41.130249790328477],[110.050623389995323,41.164444449717415],[110.142532460964432,41.192211471819874],[110.237729659367929,41.213283329930704],[110.979900129156391,41.346713915583862],[111.087272270060993,41.361295041116243],[111.19617622166669,41.367405850948913],[112.90706385513532,41.385498435277334],[113.008279621130825,41.382257685287449],[113.108548159233806,41.37170245010573],[113.206873096393863,41.353938005606075],[113.302279108140851,41.329141413403953],[113.393822393887575,41.297559579903485],[113.48060070914255,41.259506560321121],[113.56176282029044,41.215360147294298],[113.636517260975097,41.165557793376088],[113.70414028487356,41.11059192514827],[114.499664385387021,40.386461389316054],[114.555076209823241,40.330181953070451],[114.603147187467485,40.27033844937543],[114.643478042851598,40.207451298248507],[114.848433024902519,39.84336581756672],[114.895014702861573,39.739298828311512],[114.978265691698141,39.49414402563665],[115.000300354151335,39.408275837509443],[115.176806347761058,38.395708982604717],[115.183586918402867,38.340421149827456],[115.184972536252943,38.284905049638297],[115.177027343183383,37.947365988278491],[115.175257255094792,37.913784648466212],[114.992848385204042,35.622533368272101],[114.982738849468817,35.549939024751971],[114.963769960004569,35.478453919081474],[114.936143371106525,35.408747902496245],[114.900139900594411,35.341472489615633],[114.856116137973984,35.277254931374763],[114.804500462062634,35.216692564175418],[114.745788526665706,35.160347478345024],[114.680538272348684,35.108741544894222],[114.609364520882082,35.062351835519912],[114.532933206761768,35.021606466847764],[114.45195529755523,34.986880896073991],[114.367180451908979,34.958494691457453],[113.397776957258785,34.671825431341112],[113.311819822948735,34.649624383920113],[113.223632707866656,34.634016257315494],[113.134002398438639,34.625140368360682],[113.043727438315031,34.623075909576194],[110.636248705629754,34.635830449770921]]]}},
{"type":"Feature","properties":{"admin_unit_id":"admin.han140.youzhou","display_name":"幽州","geometry_status":"synthetic_proxy","historical_claim":false,"confidence":"technical_only"},"geometry":{"type":"Polygon","coordinates":[[[116.504710344476749,37.553377916947575],[116.40962564291867,37.555363250576512],[116.315221867686788,37.564345672684944],[116.222363280509256,37.580242992243271],[116.131901254998184,37.602909676810015],[116.044667122411951,37.632138071547168],[115.961465117119815,37.667660143600827],[115.883065460450879,37.709149742443742],[115.810197624058688,37.756225363744427],[115.743543816822537,37.808453401167142],[115.683732742494485,37.865351867197681],[115.631333678612009,37.926394560610419],[115.586850930440633,37.991015654537065],[115.271778232786104,38.503889456175195],[115.232293119018379,38.577501054012096],[115.203215330118468,38.653852707815219],[115.184898909232047,38.732099533823124],[114.72176624942918,41.474884432897667],[114.713756078844639,41.551418146553004],[114.716450702201939,41.62815795417827],[114.729856121000182,41.704308170637518],[114.753866439667618,41.779076454646365],[114.788263580967225,41.851682133295746],[114.832718245829952,41.921364518646051],[114.886792164108726,41.98739112258437],[115.230353991307496,42.359438780412304],[115.291370973321918,42.418589301163877],[115.360194711277472,42.473134229454544],[115.436171766506121,42.522540827675762],[115.518574380301132,42.566325331962219],[115.606607506707988,42.604058057982883],[115.699416726030975,42.635367976572333],[116.668325421331915,42.916700812425404],[116.781826876626269,42.943839709231888],[116.898951550618136,42.961483094263791],[117.018145343346973,42.969395527759453],[123.882266386452841,42.971325570588959],[123.985673873248146,42.965091002732755],[124.087692157144971,42.951526708301841],[124.187303502614739,42.930768740739559],[124.283516379695442,42.903025131061696],[124.375376137856719,42.868573585448992],[124.461975158249885,42.827758426143035],[125.266957306971051,42.401063883263753],[125.341658395935525,42.35698157721621],[125.410321466640298,42.308085614467728],[125.472362005937313,42.254802565590822],[125.527256653431749,42.197596136812798],[125.574547473485964,42.136962866819211],[125.613845510596406,42.073427566820776],[125.6448336118046,42.00753855428168],[126.712554195400742,39.235277153781077],[126.733875343950302,39.164754703895774],[126.746056726717512,39.093021586682973],[126.749011740255767,39.020743179861306],[126.74273974565989,38.948587901974825],[126.727325088520118,38.87722103184732],[126.702935353183307,38.807298630489754],[126.669818902438735,38.739461617848491],[126.628301757634119,38.674330052930628],[126.578783876539305,38.612497661855272],[126.521734887172457,38.554526654348386],[126.457689335480623,38.500942865202809],[126.3872415034336,38.452231253321138],[126.311039851975124,38.408831787190273],[126.229781140600352,38.371135742029892],[126.144204272311228,38.339482430424653],[124.251294114976602,37.70315030293122],[124.163886259804045,37.676625902381879],[124.073617724222601,37.656567571860435],[123.981295280369153,37.643154124799395],[123.887742401242988,37.636505061476441],[121.83936883335403,37.549481708414433],[121.755174445703076,37.54799030382415],[119.988166542526443,37.562355678459454],[119.97590536555019,37.562429902504036],[116.504710344476749,37.553377916947575]]]}},
{"type":"Feature","properties":{"admin_unit_id":"admin.han140.jiaozhou","display_name":"交州","geometry_status":"synthetic_proxy","historical_claim":false,"confidence":"technical_only"},"geometry":{"type":"Polygon","coordinates":[[[110.932786014967789,17.968405240139845],[110.818240895622736,17.972454954647521],[107.433725766565814,18.282323238384979],[107.341250682617542,18.294713953660292],[106.068156110188411,18.533813880480597],[105.995375257220502,18.550548872026553],[105.924479190567652,18.574054702891203],[105.856094407921901,18.604122118901913],[104.65419765426833,19.189986365574338],[104.588088869141416,19.2254748953888],[104.525627584445232,19.266965131687211],[104.467371082446633,19.314087132889636],[104.413841610307429,19.366420429528706],[104.36552179314117,19.423497658356816],[104.32285029934782,19.484808614146321],[104.286217795836521,19.549804688110413],[104.255963231750457,19.617903658506386],[104.232370489967636,19.688494795749033],[104.215665445838226,19.760944241282779],[104.20601347221529,19.834600616559118],[103.957678288466326,22.747860689386947],[103.954956139025867,22.824351396312991],[103.960295822208451,22.900699634549319],[103.973664603324664,22.976156268389484],[103.994950208129936,23.049979690541463],[104.023961179182947,23.121443158586636],[104.060428064972299,23.189842032226473],[104.104005458335436,23.254500836574579],[104.154274889409592,23.314780076586128],[104.210748565890995,23.370082728461753],[106.031251374266475,24.936272117210521],[106.089572904281823,24.980701407097797],[106.152107121520245,25.020112512032153],[106.218338613256336,25.054179240501398],[106.287719220974722,25.082619376237691],[106.359672774673143,25.105197130662933],[106.433600135454412,25.121725198593033],[110.048809080013953,25.708345638559852],[110.125653137847024,25.716215410364626],[110.202977516832547,25.717687235470674],[110.280123634793213,25.712748660093517],[112.656425435978036,25.434576059163788],[112.741067105833594,25.419659299617678],[112.823554527395231,25.396951165534425],[112.903011742226397,25.366691786476419],[112.978597300692542,25.32920092802501],[113.049513675808697,25.284874434315519],[113.115016059360229,25.234179839944904],[113.174420427619438,25.177651209427935],[113.227110779923592,25.115883271509055],[113.272545470794128,25.049524923393481],[113.310262574546684,24.979272186262094],[114.020966786383738,23.430818918117374],[114.048401061669736,23.360271481139954],[114.068318761692737,23.287550276382397],[114.080548062714143,23.213346359602543],[114.084991297411293,23.138363726735975],[114.081625188200846,23.063312594500125],[114.070500355507718,22.988902666290578],[113.240052192070351,18.664274818831071],[113.222519955471441,18.589031734523669],[113.197705769884791,18.5158418153033],[113.165863420190291,18.445409284885589],[113.127312223312259,18.378411028028953],[113.082433512735719,18.315490198382356],[113.031666633136965,18.257250170667874],[112.975504494677295,18.2042488891821],[112.91448873620844,18.156993660523735],[112.849204545736953,18.115936434152367],[112.780275185163731,18.081469609882515],[112.708356264719612,18.053922406740991],[112.634129810814017,18.033557822784051],[112.558298169343502,18.020570210505184],[112.481577784991416,18.015083487384803],[110.932786014967789,17.968405240139845]]]}}
]
}
