{
"type": "FeatureCollection",
"name": "major_routes_v0",
"crs": { "type": "name", "properties": { "name": "urn:ogc:def:crs:OGC:1.3:CRS84" } },
"features": [
{"type":"Feature","properties":{"route_id":"R001","start_location_id":"L002","end_location_id":"L001","name":"蓟县—涿县","estimated_km":"80","route_type":"imperial_road","confidence":"medium","provisional":"true","historical_claim":false,"geometry_status":"approximate_corridor"},"geometry":{"type":"LineString","coordinates":[[116.4,39.9],[115.97,39.48]]}},
{"type":"Feature","properties":{"route_id":"R002","start_location_id":"L001","end_location_id":"L005","name":"涿县—博陵节点","estimated_km":"95","route_type":"relay_road","confidence":"low","provisional":"true","historical_claim":false,"geometry_status":"approximate_corridor"},"geometry":{"type":"LineString","coordinates":[[115.97,39.48],[115.05,38.77]]}},
{"type":"Feature","properties":{"route_id":"R003","start_location_id":"L001","end_location_id":"L004","name":"涿县—中山国节点","estimated_km":"140","route_type":"trade_road","confidence":"low","provisional":"true","historical_claim":false,"geometry_status":"approximate_corridor"},"geometry":{"type":"LineString","coordinates":[[115.97,39.48],[114.99,38.52]]}},
{"type":"Feature","properties":{"route_id":"R004","start_location_id":"L005","end_location_id":"L004","name":"博陵—中山国节点","estimated_km":"65","route_type":"regional_road","confidence":"low","provisional":"true","historical_claim":false,"geometry_status":"approximate_corridor"},"geometry":{"type":"LineString","coordinates":[[115.05,38.77],[114.99,38.52]]}},
{"type":"Feature","properties":{"route_id":"R005","start_location_id":"L004","end_location_id":"L006","name":"中山—安平节点","estimated_km":"90","route_type":"trade_road","confidence":"low","provisional":"true","historical_claim":false,"geometry_status":"approximate_corridor"},"geometry":{"type":"LineString","coordinates":[[114.99,38.52],[115.55,38.23]]}},
{"type":"Feature","properties":{"route_id":"R006","start_location_id":"L006","end_location_id":"L007","name":"安平—下曲阳","estimated_km":"80","route_type":"supply_road","confidence":"low","provisional":"true","historical_claim":false,"geometry_status":"approximate_corridor"},"geometry":{"type":"LineString","coordinates":[[115.55,38.23],[114.75,38.15]]}},
{"type":"Feature","properties":{"route_id":"R007","start_location_id":"L007","end_location_id":"L008","name":"下曲阳—广宗","estimated_km":"150","route_type":"war_road","confidence":"low","provisional":"true","historical_claim":false,"geometry_status":"approximate_corridor"},"geometry":{"type":"LineString","coordinates":[[114.75,38.15],[115.16,37.07]]}},
{"type":"Feature","properties":{"route_id":"R008","start_location_id":"L006","end_location_id":"L008","name":"安平—广宗","estimated_km":"170","route_type":"supply_road","confidence":"low","provisional":"true","historical_claim":false,"geometry_status":"approximate_corridor"},"geometry":{"type":"LineString","coordinates":[[115.55,38.23],[115.16,37.07]]}},
{"type":"Feature","properties":{"route_id":"R009","start_location_id":"L008","end_location_id":"L009","name":"广宗—钜鹿郡治节点","estimated_km":"55","route_type":"regional_road","confidence":"low","provisional":"true","historical_claim":false,"geometry_status":"approximate_corridor"},"geometry":{"type":"LineString","coordinates":[[115.16,37.07],[115.03,37.22]]}},
{"type":"Feature","properties":{"route_id":"R010","start_location_id":"L008","end_location_id":"L010","name":"广宗—瘿陶","estimated_km":"70","route_type":"regional_road","confidence":"low","provisional":"true","historical_claim":false,"geometry_status":"approximate_corridor"},"geometry":{"type":"LineString","coordinates":[[115.16,37.07],[114.5,37.3]]}},
{"type":"Feature","properties":{"route_id":"R011","start_location_id":"L008","end_location_id":"L011","name":"广宗—邺县","estimated_km":"110","route_type":"supply_road","confidence":"low","provisional":"true","historical_claim":false,"geometry_status":"approximate_corridor"},"geometry":{"type":"LineString","coordinates":[[115.16,37.07],[114.46,36.33]]}},
{"type":"Feature","properties":{"route_id":"R012","start_location_id":"L011","end_location_id":"L012","name":"邺县—洛阳出口","estimated_km":"190","route_type":"trunk_direction","confidence":"low","provisional":"true","historical_claim":false,"geometry_status":"approximate_corridor"},"geometry":{"type":"LineString","coordinates":[[114.46,36.33],[112.6,34.7]]}},
{"type":"Feature","properties":{"route_id":"geo.route.luoyang_chenliu","start_location_id":"C027","end_location_id":"C019","name":"洛阳—陈留","estimated_km":"210","route_type":"national_corridor","confidence":"low","provisional":"true","historical_claim":false,"geometry_status":"approximate_corridor"},"geometry":{"type":"LineString","coordinates":[[112.45,34.62],[114.34,34.72]]}},
{"type":"Feature","properties":{"route_id":"geo.route.luoyang_changan","start_location_id":"C027","end_location_id":"C031","name":"洛阳—长安","estimated_km":"370","route_type":"national_corridor","confidence":"low","provisional":"true","historical_claim":false,"geometry_status":"approximate_corridor"},"geometry":{"type":"LineString","coordinates":[[112.45,34.62],[108.94,34.27]]}},
{"type":"Feature","properties":{"route_id":"geo.route.hebei_zhongyuan","start_location_id":"C012","end_location_id":"C025","name":"河北—中原","estimated_km":"430","route_type":"national_corridor","confidence":"low","provisional":"true","historical_claim":false,"geometry_status":"approximate_corridor"},"geometry":{"type":"LineString","coordinates":[[114.99,38.52],[113.85,34.04]]}},
{"type":"Feature","properties":{"route_id":"geo.route.xiangyang_jiangling","start_location_id":"C041","end_location_id":"C043","name":"襄阳—江陵","estimated_km":"220","route_type":"national_corridor","confidence":"low","provisional":"true","historical_claim":false,"geometry_status":"approximate_corridor"},"geometry":{"type":"LineString","coordinates":[[112.14,32.04],[112.42,30.35]]}},
{"type":"Feature","properties":{"route_id":"geo.route.hanzhong_jiange_chengdu","start_location_id":"C065","end_location_id":"C066","name":"汉中—剑阁—成都","estimated_km":"450","route_type":"national_corridor","confidence":"low","provisional":"true","historical_claim":false,"geometry_status":"approximate_corridor"},"geometry":{"type":"LineString","coordinates":[[106.93,33.0],[105.16,31.64]]}},
{"type":"Feature","properties":{"route_id":"geo.route.huainan_jiangdong","start_location_id":"C052","end_location_id":"C056","name":"淮南—江东","estimated_km":"260","route_type":"national_corridor","confidence":"low","provisional":"true","historical_claim":false,"geometry_status":"approximate_corridor"},"geometry":{"type":"LineString","coordinates":[[116.79,32.58],[118.8,32.06]]}}
]
}
